HULIANWANG DIGUI-100    
1 66416U 25258E   26188.44557241 -.00000082  00000+0  90943-4 0  9991
2 66416  50.0022 223.1429 0001016 228.2440 131.8346 13.29322850 32430
HULIANWANG DIGUI-101    
1 66417U 25258F   26188.43706210 -.00000089  00000+0  76006-4 0  9994
2 66417  49.9971 222.9940 0000872 223.7722 136.3081 13.29326730 32435
HULIANWANG DIGUI-102    
1 66418U 25258G   26188.48729385 -.00000096  00000+0  59611-4 0  9999
2 66418  49.9990 222.6184 0000928 219.5066 140.5739 13.29322711 32432
HULIANWANG DIGUI-103    
1 66419U 25258H   26188.47883164 -.00000097  00000+0  58391-4 0  9990
2 66419  49.9981 222.5601 0001007 229.8454 130.2330 13.29325740 32438
HULIANWANG DIGUI-104    
1 66420U 25258J   26188.47052025 -.00000091  00000+0  70545-4 0  9995
2 66420  50.0000 222.5554 0000977 218.0601 142.0202 13.29325854 32425
STARLINK-35617          
1 66422U 25259A   26188.70443223  .00014932  00000+0  55061-3 0  9991
2 66422  43.0012 316.7826 0001000 276.8804  83.1934 15.27606401 37843
STARLINK-35618          
1 66423U 25259B   26188.43774815  .00011433  00000+0  42422-3 0  9996
2 66423  43.0002 318.2174 0002158 291.4709  68.5912 15.27589070 37809
STARLINK-35588          
1 66424U 25259C   26188.36978466  .00019045  00000+0  69928-3 0  9994
2 66424  43.0005 318.5647 0002606 283.9401  76.1161 15.27603064 37793
STARLINK-35555          
1 66425U 25259D   26188.43130992  .00020993  00000+0  77018-3 0  9990
2 66425  43.0029 318.1684 0002147 271.3149  88.7456 15.27580669 37800
STARLINK-35589          
1 66426U 25259E   26188.42874522  .00010613  00000+0  39457-3 0  9997
2 66426  42.9996 318.1404 0001660 173.8171 186.2701 15.27587070 37802
STARLINK-35611          
1 66427U 25259F   26188.35950662  .00013781  00000+0  50916-3 0  9992
2 66427  43.0065 318.4873 0002706 287.2097  72.8459 15.27592437 37795
STARLINK-35610          
1 66428U 25259G   26188.42104179  .00015154  00000+0  55883-3 0  9999
2 66428  43.0033 318.0854 0001351 256.0666 104.0035 15.27595230 37801
STARLINK-35533          
1 66429U 25259H   26188.35180864  .00015205  00000+0  56057-3 0  9998
2 66429  43.0040 318.4275 0001408 271.6782  88.3908 15.27600479 37799
STARLINK-35470          
1 66430U 25259J   26188.34795092  .00019568  00000+0  71813-3 0  9997
2 66430  43.0016 318.3948 0001375 249.1993 110.8712 15.27606851 37791
STARLINK-35439          
1 66431U 25259K   26188.41074756  .00000265  00000+0  19146-4 0  9999
2 66431  43.0025 318.0056 0001494 275.3033  84.7648 15.27572728 37801
STARLINK-35446          
1 66432U 25259L   26188.40947255  .00010840  00000+0  40275-3 0  9998
2 66432  43.0012 317.9951 0001459 260.3781  99.6906 15.27589661 37801
STARLINK-35457          
1 66433U 25259M   26188.40691868  .00019876  00000+0  72943-3 0  9990
2 66433  43.0022 317.9764 0001349 284.1717  75.8984 15.27598697 37807
STARLINK-35389          
1 66434U 25259N   26188.40562889  .00019824  00000+0  72745-3 0  9994
2 66434  43.0029 317.9660 0001099 265.0059  95.0668 15.27604515 37809
STARLINK-35502          
1 66435U 25259P   26188.39919862 -.00015908  00000+0 -57021-3 0  9991
2 66435  43.0002 317.9121 0001021 186.1561 173.9278 15.27556245 37808
STARLINK-35501          
1 66436U 25259Q   26188.40433185  .00016064  00000+0  59175-3 0  9997
2 66436  43.0013 317.9524 0001576 227.4449 132.6270 15.27594807 37807
STARLINK-35474          
1 66437U 25259R   26188.43901494  .00012821  00000+0  47423-3 0  9994
2 66437  43.0023 318.2225 0001642 272.2207  87.8456 15.27607345 37804
STARLINK-34681          
1 66438U 25259S   26188.43259672  .00010961  00000+0  40716-3 0  9990
2 66438  42.9994 318.1667 0001542 260.7958  99.2719 15.27585069 37697
STARLINK-35327          
1 66439U 25259T   26188.39790947  .00015464  00000+0  56994-3 0  9999
2 66439  42.9981 317.9012 0001215 168.1480 191.9400 15.27599687 37804
STARLINK-35405          
1 66440U 25259U   26188.42746385  .00019531  00000+0  71730-3 0  9996
2 66440  43.0004 318.1253 0001222 242.2501 117.8227 15.27582930 37807
STARLINK-35426          
1 66441U 25259V   26188.41975449  .00011248  00000+0  41747-3 0  9993
2 66441  43.0031 318.0696 0001527 264.0271  96.0406 15.27592460 37808
STARLINK-34724          
1 66442U 25259W   26188.39548470  .00012101  00000+0  44848-3 0  9995
2 66442  43.0001 318.7487 0000912 234.7824 125.2942 15.27584056 37796
STARLINK-35219          
1 66443U 25259X   26188.39163118  .00012633  00000+0  46767-3 0  9990
2 66443  43.0034 318.7212 0003078 286.9078  73.1436 15.27588822 37687
STARLINK-35360          
1 66444U 25259Y   26188.40176075  .00020861  00000+0  76506-3 0  9995
2 66444  43.0012 317.9265 0001538 213.2885 146.7871 15.27597023 37808
STARLINK-34698          
1 66445U 25259Z   26188.38777829  .00018204  00000+0  66886-3 0  9995
2 66445  42.9991 318.6884 0001185 220.0634 140.0130 15.27607533 37683
STARLINK-34986          
1 66446U 25259AA  26188.44672832  .00017362  00000+0  63910-3 0  9990
2 66446  42.9996 318.2730 0003226 279.1237  80.9249 15.27570173 37803
STARLINK-34851          
1 66447U 25259AB  26188.39420076  .00006210  00000+0  23496-3 0  9991
2 66447  43.0030 318.7371 0002106 269.7262  90.3349 15.27586846 37686
STARLINK-35355          
1 66448U 25259AC  26188.38905134  .00014671  00000+0  54113-3 0  9994
2 66448  42.9955 318.6945 0002475 286.4930  73.5649 15.27608232 37796
STARLINK-34720          
1 66449U 25259AD  26188.44931033  .00010581  00000+0  39333-3 0  9992
2 66449  43.0001 318.2895 0001642 261.1616  98.9049 15.27591041 37690
STARLINK-35334          
1 66450U 25259AE  26188.44544970  .00014179  00000+0  52345-3 0  9999
2 66450  42.9979 318.2583 0001715 218.0221 142.0509 15.27599576 37808
VIASAT-3 F2             
1 66454U 25261A   26187.91557027 -.00000219  00000+0  00000+0 0  9992
2 66454   0.0344 192.7662 0000795  19.0684 323.6931  1.00272669  2990
STARLINK-35643          
1 66456U 25262A   26188.41840291  .00014514  00000+0  53564-3 0  9998
2 66456  43.0040 340.3361 0001705 276.9724  83.0933 15.27595523 37213
STARLINK-35466          
1 66457U 25262B   26188.73632668  .00009298  00000+0  34680-3 0  9992
2 66457  43.0051 338.4204 0002005 282.3896  77.6731 15.27599093 37261
STARLINK-35684          
1 66458U 25262C   26188.73890171  .00014420  00000+0  53210-3 0  9991
2 66458  43.0044 338.4402 0001702 274.1020  85.9637 15.27605997 37263
STARLINK-35449          
1 66459U 25262D   26188.72990352  .00014798  00000+0  54574-3 0  9995
2 66459  43.0037 338.3697 0001073 284.9698  75.1034 15.27606797 37263
STARLINK-35424          
1 66460U 25262E   26188.44909342  .00018807  00000+0  69069-3 0  9995
2 66460  43.0016 339.7006 0001620 259.4419 100.6250 15.27603809 37228
STARLINK-35132          
1 66461U 25262F   26188.44651719  .00016417  00000+0  60429-3 0  9994
2 66461  43.0024 339.6823 0002050 290.8155  69.2477 15.27606924 37220
STARLINK-35499          
1 66462U 25262G   26188.43750887  .00018312  00000+0  67325-3 0  9998
2 66462  43.0002 339.6136 0001718 276.1278  83.9377 15.27582404 37225
STARLINK-35463          
1 66463U 25262H   26188.46579634  .00017884  00000+0  65733-3 0  9995
2 66463  43.0037 339.8255 0001119 266.8790  93.1933 15.27604760 37229
STARLINK-35435          
1 66464U 25262J   26188.75545538  .00018561  00000+0  68153-3 0  9996
2 66464  43.0019 337.6945 0001562 262.6788  97.3886 15.27618038 37276
STARLINK-35448          
1 66465U 25262K   26188.73761557  .00015121  00000+0  55741-3 0  9994
2 66465  43.0036 338.4243 0001365 263.9943  96.0753 15.27607909 37267
STARLINK-35388          
1 66466U 25262L   26188.70420287  .00013191  00000+0  48773-3 0  9996
2 66466  43.0051 338.1736 0003392 280.3054  79.7415 15.27597043 37267
STARLINK-35682          
1 66467U 25262M   26188.75431921  .00010799  00000+0  40110-3 0  9997
2 66467  43.0001 338.5485 0001502 256.4968 103.5716 15.27603903 37260
STARLINK-35331          
1 66468U 25262N   26188.48507253  .00016945  00000+0  62351-3 0  9990
2 66468  43.0039 339.9687 0001249 266.4731  93.5978 15.27599439 37220
STARLINK-35451          
1 66469U 25262P   26188.76059653  .00016886  00000+0  62112-3 0  9997
2 66469  43.0014 337.7341 0001689 260.6865  99.3796 15.27613607 37270
STARLINK-35655          
1 66470U 25262Q   26188.72861681  .00013694  00000+0  50583-3 0  9990
2 66470  43.0041 338.3549 0001675 263.7823  96.2838 15.27605616 37265
STARLINK-35569          
1 66471U 25262R   26188.45166504  .00020708  00000+0  75952-3 0  9994
2 66471  43.0017 339.7131 0002050 282.5907  77.4715 15.27597192 37221
STARLINK-35567          
1 66472U 25262S   26188.43881223  .00019162  00000+0  70356-3 0  9990
2 66472  42.9993 339.6170 0001333 283.8522  76.2181 15.27602727 37220
STARLINK-35568          
1 66473U 25262T   26188.48891318  .00015277  00000+0  56309-3 0  9997
2 66473  43.0036 339.9934 0002442 289.3737  70.6851 15.27605321 37228
STARLINK-35620          
1 66474U 25262U   26188.44780445  .00019575  00000+0  71841-3 0  9995
2 66474  43.0007 339.6828 0001607 292.1938  67.8743 15.27606197 37223
STARLINK-35538          
1 66475U 25262V   26188.74274339  .00011713  00000+0  43422-3 0  9999
2 66475  43.0005 338.4543 0001660 200.5888 159.4896 15.27601487 37267
STARLINK-35372          
1 66476U 25262W   26188.72603380  .00018682  00000+0  68609-3 0  9996
2 66476  43.0026 338.3309 0003478 289.8745  70.1732 15.27606699 37157
STARLINK-35354          
1 66477U 25262X   26187.72598239  .00018586  00000+0  68312-3 0  9996
2 66477  43.0013 343.7228 0001948 267.4696  92.5933 15.27584502 37116
STARLINK-35283          
1 66478U 25262Y   26188.74019095  .00018893  00000+0  69379-3 0  9993
2 66478  43.0032 338.4377 0001383 271.4398  88.6295 15.27605222 37267
STARLINK-35581          
1 66479U 25262Z   26188.75672884  .00020955  00000+0  76762-3 0  9992
2 66479  42.9997 337.7005 0001217 260.8405  99.2309 15.27631725 37275
